#cP2022 12 25  0  0  0.00000000      96 ORBIT IGS20 HLM  IGS
## 2242      0.00000000   900.00000000 59938 0.0000000000000
+   31   G01G02G03G04G05G06G07G08G09G10G11G12G13G14G15G16G17
+        G18G19G20G21G22G23G24G25G26G27G29G30G31G32  0  0  0
+          0  0  0  0  0  0  0  0  0  0  0  0  0  0  0  0  0
+          0  0  0  0  0  0  0  0  0  0  0  0  0  0  0  0  0
+          0  0  0  0  0  0  0  0  0  0  0  0  0  0  0  0  0
++         2  2  3  2  2  2  2  2  2  3  2  2  2  2  2  2  2
++         2  2  2  2  2  3  2  2  2  2  2  2  2  2  0  0  0
++         0  0  0  0  0  0  0  0  0  0  0  0  0  0  0  0  0
++         0  0  0  0  0  0  0  0  0  0  0  0  0  0  0  0  0
++         0  0  0  0  0  0  0  0  0  0  0  0  0  0  0  0  0
%c G  cc GPS ccc cccc cccc cccc cccc ccccc ccccc ccccc ccccc
%c cc cc ccc ccc cccc cccc cccc cccc ccccc ccccc ccccc ccccc
%f  1.2500000  1.025000000  0.00000000000  0.000000000000000
%f  0.0000000  0.000000000  0.00000000000  0.000000000000000
%i    0    0    0    0      0      0      0      0         0
%i    0    0    0    0      0      0      0      0         0
/* RAPID ORBIT COMBINATION FROM WEIGHTED AVERAGE OF:        
/* cod emr esa gfz grg jpl ngs sio usn whu                  
/* REFERENCED TO IGS TIME (IGST) AND TO WEIGHTED MEAN POLE: 
/* PCV:IGS20_2233 OL/AL:FES2014b NONE     Y  ORB:CMB CLK:CMB
*  2022 12 25 15  0  0.00000000
PG01 -17423.293161  -6639.416911  18741.088187    232.967137  7  7  5 103       
PG02  17258.950249   1904.896387 -19403.596255   -631.114059  3  7  5  91       
PG03 -17707.618395   4159.660255  19193.967246   -374.837607  9  7  9  62       
PG04 -26572.807482   -473.309850  -1518.751859    -61.785349  7  8  8  73       
PG05  11430.405711  10486.542835 -21718.481219   -109.437156  7  5  7  69       
PG06   3873.719295  23516.093538  11701.897673    546.989046  6  6  4 110       
PG07 -12252.062481   9241.586490 -21220.930497    269.192455  5  6  5 104       
PG08 -23951.809625  -6816.351552  -9808.645053   -100.376879  7  6  4 110       
PG09 -22280.544914   8375.790977 -11913.734261   -247.664185  4  6  3  63       
PG10  10531.947102 -23733.190987   4882.374099    -17.622846  7 10  6 100       
PG11  11971.230641  23720.130899   -748.470928    -64.194504  3  2  8  90       
PG12  17715.626212  -1855.356397  19394.362433   -320.168525  7  5  3  85       
PG13  18019.171455  13153.762284 -14731.806838    448.079578  5  5  6 101       
PG14 -12971.479548  22969.720010   2481.346232    -61.967398  9  9  7  67       
PG15  24538.011051   4634.042165  -9889.124870     -1.065416  4  6  6  98       
PG16  -7412.942293 -14528.795335 -21159.421784   -525.495454  3  6  5 111       
PG17 -11012.619150  13138.972994  20751.139772    688.576710  8  6  5  83       
PG18  10104.838758 -12082.644059 -21360.544121    -72.854498 10  8  7 101       
PG19   2036.429717  15025.660120  21600.871211    255.259562  5  4  5  98       
PG20   3886.716834  20996.756949 -15909.034535    461.281220  7  4  7  88       
PG21 -19770.732141 -13287.873715  13128.583457    152.954362  7  8  6 111       
PG22  -5433.410018 -15523.610778  21316.722139    392.069434  5  6  6 105       
PG23  16377.191636 -19780.928707  -6479.519095      0.783966 11 12  6 109       
PG24  19655.790298   9461.237092  15086.167644     -0.403908  6  7  5  69       
PG25  18682.958411 -12351.718637  13750.152327    405.320360  5  1  7  91       
PG26    711.683547 -22746.794474 -13511.949885    239.130605  2  4  6 121       
PG27 -15168.252861 -12734.725297 -18116.189486    143.932026  6  4  5 113       
PG29  24161.277636  -4506.773768 -10209.880770   -576.349478  6  7  7  94       
PG30  -3359.007517  20105.318909 -16801.709163   -534.743137  3  4  5  86       
PG31  -4621.124178 -23961.373858   9736.533063   -204.342580  6  6  5 106       
PG32   6969.710907 -14708.693750  21108.304000   -341.880939  4  4  6 100       
*  2022 12 25 15 15  0.00000000
PG01 -18375.645495  -8500.014954  17061.671346    232.962495  7  7  5 111       
PG02  18447.455613   3840.043677 -17999.311089   -631.112110  2  7  5  86       
PG03 -16663.741713   2119.401918  20424.784557   -374.836749  9  7  9  78       
PG04 -26577.662594   -717.096948   1333.189927    -61.778803  7  8  8  89       
PG05  10288.285348  12616.910105 -21133.928105   -109.438481  7  5  6  91       
PG06   3012.393290  22323.941615  14072.092194    546.995417  7  6  4 101       
PG07 -13552.731520   7071.995142 -21306.526684    269.187416  5  7  5 112       
PG08 -22715.041719  -7052.252604 -12253.180341   -100.377656  6  6  3 116       
PG09 -23497.749440   8181.960090  -9440.462127   -247.658565  4  6  3  85       
PG10  10917.552831 -23951.056391   2011.858144    -17.623961  8 10  6 104       
PG11  11720.605197  23764.218705   2110.827329    -64.201630  3  2  8  97       
PG12  16509.460402    151.166138  20508.667774   -320.172602  6  5  3  77       
PG13  16252.153625  13075.121368 -16728.291821    448.085469  5  5  7  98       
PG14 -13285.374054  22920.231651   -357.548131    -61.961349  9  9  7  93       
PG15  23383.119035   5065.985167 -12270.678908     -1.062251  3  5  6 102       
PG16  -6020.837894 -16381.247877 -20171.880658   -525.494642  4  7  5 121       
PG17 -13217.053187  12947.039678  19529.991976    688.579339  8  7  5  86       
PG18  11355.963262  -9951.945000 -21838.212973    -72.867787 10  8  7  98       
PG19   -481.936175  14788.979934  21827.846720    255.263737  6  5  5 106       
PG20   3112.730093  22527.586572 -13877.395271    461.278944  6  4  7 111       
PG21 -20377.743207 -14400.426880  10764.926670    152.953965  7  8  5 114       
PG22  -3058.422933 -15387.632424  21876.827307    392.076559  5  6  5 101       
PG23  16151.565114 -18884.653682  -9174.787235      0.784740 11 11  7 127       
PG24  20422.479346  10942.697061  13006.106425     -0.419286  7  7  5  72       
PG25  18031.309064 -10710.238739  15822.519647    405.323490  5  2  7  81       
PG26   1587.448710 -23897.018848 -11211.075069    239.131357  2  3  7 123       
PG27 -13069.413923 -12854.120219 -19588.834873    143.923168  6  4  5 106       
PG29  25155.023034  -4259.613614  -7569.497789   -576.351790  5  7  6  88       
PG30  -4550.248120  18430.462134 -18383.322588   -534.742464  3  4  4  94       
PG31  -3752.901133 -22964.891794  12203.782185   -204.343644  7  6  5 102       
PG32   9307.396955 -14662.046239  20195.600004   -341.892559  4  3  6  97       
*  2022 12 25 15 30  0.00000000
PG01 -19316.537722 -10124.947768  15085.845608    232.957879  7  7  5 108       
PG02  19619.479239   5566.542676 -16267.088837   -631.110209  3  7  5  83       
PG03 -15679.494945    -82.024949  21299.558550   -374.835988  9  7  8  71       
PG04 -26274.690090   -971.285802   4162.343503    -61.772281  7  8  8  99       
PG05   9294.235045  14727.419059 -20190.484138   -109.439677  6  6  6  75       
PG06   1944.770808  20969.956871  16200.126474    547.001804  7  7  4 104       
PG07 -14949.010895   4983.462212 -21011.233415    269.182372  6  7  5 112       
PG08 -21230.024993  -7378.485178 -14491.393883   -100.379179  5  6  2 112       
PG09 -24436.560860   8024.867389  -6805.662004   -247.652963  4  7  3  80       
PG10  11148.066243 -23892.109920   -893.906400    -17.625645  9 11  6 109       
PG11  11307.432564  23545.615820   4933.881555    -64.208761  3  4  8  96       
PG12  15356.147110   2310.735818  21260.706762   -320.176454  6  5  3  66       
PG13  14275.592025  13077.945481 -18442.599154    448.092011  5  7  7  93       
PG14 -13449.892040  22602.875967  -3190.239506    -61.955206  8  9  6  85       
PG15  22004.079293   5602.135979 -14448.700136     -1.059336  3  5  6  81       
PG16  -4793.386597 -18197.674299 -18841.661302   -525.493814  5  7  6 114       
PG17 -15276.444193  12876.371082  17985.414699    688.581551  8  7  6  79       
PG18  12737.266413  -7865.421681 -21939.697740    -72.881130 10  7  7  94       
PG19  -3016.086522  14687.691747  21671.103627    255.268371  7  6  5  98       
PG20   2487.337059  23862.671931 -11609.091817    461.276773  5  5  6  93       
PG21 -20874.871087 -15270.643058   8228.292633    152.952660  7  8  5 114       
PG22   -636.460876 -15378.518207  22075.389106    392.083779  4  6  5  88       
PG23  15851.174692 -17707.012259 -11710.887041      0.785447 11 11  8  59       
PG24  21104.718510  12187.703775  10702.428024     -0.434731  7  7  5  52       
PG25  17367.174909  -8837.688719  17613.539802    405.326598  5  3  7  72       
PG26   2304.903772 -24837.524746  -8714.720361    239.132080  3  3  7 124       
PG27 -10832.249522 -13098.887552 -20734.375743    143.914293  6  5  5 115       
PG29  25854.816024  -4069.114869  -4799.602437   -576.353910  4  7  6  87       
PG30  -5906.608497  16679.932480 -19643.769317   -534.741761  3  5  4 104       
PG31  -2691.017982 -21785.371788  14454.124483   -204.344674  6  6  5 106       
PG32  11524.881731 -14727.397874  18938.331599   -341.904222  3  3  7  84       
EOF
